#dP2021  5 10  0  0  0.00000000      96 __u+U ITR00 FIT  IAC
## 2157  86400.00000000   900.00000000 59344 0.0000000000000
+  116   C06C07C08C09C10C11C12C13C14C16C19C20C21C22C23C24C25
+        C26C27C28C29C30C32C33C34C35C36C37C38C39C40C41C42C43
+        C44C45C46E01E02E03E04E05E07E08E09E11E12E13E14E15E18
+        E19E21E24E25E26E27E30E31E33E36G01G02G03G04G05G06G07
+        G08G09G10G12G13G14G15G16G17G18G19G20G21G22G23G24G25
+        G26G27G28G29G30G31G32J01J02J03R01R02R03R04R05R07R08
+        R09R11R12R13R14R15R16R17R18R19R20R21R22R24  0  0  0
++         8  8  8  8  7  9  8  8  7  8  7  7  7  7  7  7  7
++         8  8  6  8  8  8  6  7  7  6  7  9  8  8  7  7  7
++         7  8  7  7  7  7  6  7  6  6  6  7  7  7  6  5  5
++         6  6  6  7  7  6  7  6  7  6  6  7  6  5  7  7  8
++         5  6  6  6  6  7  7  6  7  5  7  6  7  5  6  7  6
++         7  6  6  7  6  7  6  8  8  8  7  8  6  6  7  6  7
++         8  7  7  7  7  7  7  6  7  7  8  6  7  8  0  0  0
%c M  cc GPS ccc cccc cccc cccc cccc ccccc ccccc ccccc ccccc
%c cc cc ccc ccc cccc cccc cccc cccc ccccc ccccc ccccc ccccc
%f  0.0000000  0.000000000  0.00000000000  0.000000000000000
%f  0.0000000  0.000000000  0.00000000000  0.000000000000000
%i    0    0    0    0      0      0      0      0         0
%i    0    0    0    0      0      0      0      0         0
/* INFORMATION & ANALYSIS CENTER (IAC)      ULTRA-RAPID DATA
/* S/V CLOCKS ARE ALIGNED TO GNSS TIME                      
/* G:C1WC2W R:C1PC2P E:C1XC5X C:C2IC6I J:C1CC2S             
/* PCV:IGS14_2148 OL/AL:FES2004  NONE     YN ORB:CoN CLK:CoN
*  2021 05 10 16 45  0.00000000
PC06  -7575.066319  29715.944620  29618.746962    369.488863
PC07 -22563.351546  23799.830844 -26512.645513   -208.108856
PC08 -20065.998837  36859.493348   -215.323851   -890.254347
PC09   4277.873240  37742.630514  19067.883180    533.823109
PC10  -5588.150875  26653.790128 -32049.279443    -44.611352
PC11  10823.662479  25699.549006   -121.006266    333.081988
PC12  -1967.640642  22438.024429 -16435.177988    889.818912
PC13 -10943.306911  38670.908296  12433.224186    255.376943
PC14  11502.653216  15288.431098  20324.413043    693.862923
PC16  -4139.791788  31464.077339  27992.522939   -829.931294
PC19 -20868.500850 -11835.866992 -14239.879340    829.814259
PC20  -2434.536700 -16010.929567 -22706.563693   -923.062056
PC21 -18456.708095  10766.604584  17987.288112   -942.523897
PC22 -27780.578359   -733.690112   2742.230979   -957.774001
PC23  20238.761337  -5466.335857 -18414.526229   -904.127645
PC24  -6068.995986  24003.767909 -12860.775449   -845.154504
PC25  10942.332318  12381.150572 -22491.174641   -919.178488
PC26 -17482.963725  21508.108797   3079.444753    909.014679
PC27   9279.031100 -15480.558844  21256.702208    529.422590
PC28  17728.828716   4200.353675  21136.204623    -76.072757
PC29 -16566.657088 -20742.887525  -8605.318179    390.418434
PC30  -5146.013682 -25755.022604   9386.493674    466.440882
PC32  18359.895559 -10893.241751 -17943.073583   -935.322137
PC33  20819.176717  11810.300764  14341.140072   -939.212077
PC34   5615.089350  25921.144758  -8733.779694   -676.580085
PC35 -17989.392861  -3887.377086 -20974.006557   -287.252229
PC36 -10372.009225 -12965.760616  22452.365247   -727.240744
PC37  18360.661737 -20655.617315  -3914.304661   -896.065839
PC38 -16739.081685  38413.277460   4212.012328    147.838516
PC39    217.164714  32907.084047  26453.637633     30.987462
PC40 -11794.521148  21435.473757 -34340.052643    159.608427
PC41  27787.602684    896.728454  -2361.851293   -944.753435
PC42   1508.672730  16073.841439  22809.269889   -916.302987
PC43  16305.214071  21168.449928   8086.159676   -724.045388
PC44  -8989.915080  15706.492322 -21262.720739 999999.999999
PC45 -20171.301101   5658.207439  18430.691018    436.508217
PC46   5286.444508 -23768.115001  13667.867753    277.253868
PE01   4310.374000 -19009.643751  22274.773056  -1104.906228
PE02  -4158.425659  18976.340520 -22332.839061    218.122072
PE03   7094.683879  21071.272541  19539.073121   -429.428616
PE04 -22987.787625 -18217.675086  -3979.407454   -768.040217
PE05 -13188.487777  11589.746211  23839.780517   -282.060693
PE07  25563.517532   4553.051151 -14188.613308   -536.021204
PE08  23237.319171  17944.968985   3716.872621   6004.293170
PE09 -25507.348553  -4352.651305  14398.911118   5672.420879
PE11 -16227.429259   2141.034261 -24673.913886   5996.857504
PE12 -11423.530827 -19829.964653 -18762.523649   5217.466486
PE13  16141.552725  -1653.838779  24757.771341    416.208817
PE14 -20798.806136   6744.067277 -24138.478279  -1426.312839
PE15  11443.059748  19788.631188  18815.153528    815.008423
PE18  12684.827427  -8080.007940  18002.867028  -1561.092951
PE19  -4858.414693 -20481.991813 -20797.713077    273.487362
PE21  21670.602414 -17985.886752   9112.299890   -664.133091
PE24 -27064.067314   5732.517764  10486.549733   -892.770379
PE25 -21799.489862  17917.283832  -8934.418439   -533.418220
PE26  11173.585003 -22652.604294  15431.313754   1826.473937
PE27  27169.579007  -6476.944595  -9810.667487    -29.460047
PE30  15828.948263   9540.976800 -23134.639887   2956.489624
PE31 -16658.445991  -8768.387796  22846.807777   -481.021561
PE33    -15.083304 -29537.652032  -1806.415230   -468.448521
PE36 -11326.231660  22107.988663 -16106.566535   -205.236983
PG01  13575.670871 -18516.402551  12783.498799    692.979119
PG02 -14054.489135  -5377.111816 -21233.204069   -603.071651
PG03  21211.172796 -12839.775600  -9445.024208   -160.248855
PG04  11976.013242  -9485.217930 -21721.161139   -195.710252
PG05 -25724.623651   4070.245026  -5850.320976    -41.539812
PG06  -7956.777247 -17675.079871 -18073.299311     14.475226
PG07   6446.775773 -25483.597140    164.312509    147.008411
PG08  18479.633871   -829.554676  19161.891318    -20.719650
PG09   1315.112265 -17873.225885 -19655.043676   -344.627316
PG10   7013.530376  13594.804568  21848.232426   -119.219193
PG12 -23221.373539  10299.477708  -7754.000075    -39.247674
PG13 -20129.326801  -8933.518930  14811.624973    130.352304
PG14  -5746.730895 -14287.651639  21631.617510     87.569252
PG15 -18563.664755   3225.450940  18486.686778   -150.334648
PG16  25097.709835   1727.581762  -9457.023076   -323.029805
PG17 -11743.310963 -22068.053636   9394.190668    440.218445
PG18  -4582.826485  25894.704446   3463.474070    350.687787
PG19 -17165.207989 -20348.635344   -130.308103     -1.762271
PG20 -22151.690619  13614.088038   4459.509727    522.325580
PG21  15505.319379 -11025.162603  19044.776069    117.169071
PG22  24804.830893  -9169.743296    873.962714   -617.647219
PG23  -5814.848351  16415.640866  20019.991302    107.783082
PG24 -14793.974991  14192.089489  16427.242414     69.186407
PG25 -12777.126819  16048.009371 -16985.375046    134.657603
PG26  19716.045753   6308.536703 -16845.799547     83.531455
PG27  21775.434429  10150.390295  11548.381538   -127.713479
PG28 -10903.812530 -12625.232622  21178.940703    573.496057
PG29  -2401.302804  17300.336186 -20043.501284   -344.739009
PG30  -2760.624391 -23387.662246  12108.422782   -424.273845
PG31  10143.517025  14859.581093 -19467.945408   -116.507656
PG32  14819.716144  21015.372714   7107.274742     21.435839
PJ01 -29515.504333  21099.178736  26528.881865   -376.910499
PJ02 -34722.772875  22892.600867  -2189.432220      7.737199
PJ03 -20057.527528  23778.081017 -23883.968453     -5.145556
PR01 -17336.162070 -11870.051230 -14469.872532     79.227857
PR02 -24426.737284  -4379.249402   5820.017410    478.077779
PR03 -15224.049388   5387.051272  19775.945600     35.691953
PR04   2419.570774  11738.623256  22550.056894     86.174819
PR05  18718.437161  11765.376344  12757.013611     71.472832
PR07  14760.064439  -5616.473964 -20001.962270    -42.491608
PR08  -2476.300358 -11826.279363 -22401.391946    -58.946807
PR09  18211.134953  -6500.674195 -16580.268795     -7.821661
PR11   8379.388759 -18539.947143  15386.511154     -3.344421
PR12  -7022.580413  -8466.341668  23038.719370    227.793331
PR13 -17861.600501   6186.221815  17111.440612    -54.550631
PR14 -18501.623135  17563.120027    600.022485     64.101886
PR15  -8245.792802  18344.794754 -15671.955754    103.903121
PR16   8263.468154   7505.558117 -22960.200514    -14.943134
PR17  -6467.450556  13352.729300 -20735.718032    422.899438
PR18   1947.185669  24139.087443  -8093.767986     76.027113
PR19   8410.676854  22688.580060   8071.846457   -143.178071
PR20  11274.249302   6236.693701  22027.823426    -48.862540
PR21   5894.760580 -14466.482300  20167.952282   -207.948391
PR22  -2348.937240 -24335.250498   7075.841859   -112.042391
PR24 -11731.910187  -5159.894475 -22043.627383     42.107485
EOF
